STARLINK-5670           
1 55341U 23013L   25100.94665156 -.00002354  00000+0 -15933-3 0  9996
2 55341  43.0033 308.5889 0001387 269.6629  90.4055 15.02521071121655
STARLINK-5657           
1 55342U 23013M   25100.87461693 -.00000352  00000+0 -10977-4 0  9999
2 55342  43.0028 308.9068 0001045 262.8719  97.2004 15.02533826121648
STARLINK-5661           
1 55343U 23013N   25101.00202369 -.00000331  00000+0 -94366-5 0  9991
2 55343  43.0020 308.1436 0001055 276.4194  83.6528 15.02533019122095
STARLINK-5653           
1 55345U 23013Q   25101.80005281 -.00003001  00000+0 -20734-3 0  9998
2 55345  43.0034 290.7802 0000277  60.3990 299.6880 15.02507357122360
STARLINK-5631           
1 55346U 23013R   25100.99980367  .00000834  00000+0  76827-4 0  9999
2 55346  43.0039 308.1236 0001281 261.3385  98.7312 15.02531473122092
STARLINK-5663           
1 55347U 23013S   25100.98759223  .00000221  00000+0  31410-4 0  9993
2 55347  43.0012 308.0332 0001444 263.6302  96.4376 15.02536260122099
STARLINK-5609           
1 55348U 23013T   25100.92999463 -.00000051  00000+0  11256-4 0  9998
2 55348  43.0025 308.4585 0000594 273.0962  86.9812 15.02534886122080
STARLINK-5666           
1 55349U 23013U   25101.25905239 -.00000226  00000+0 -16084-5 0  9994
2 55349  43.0042 306.6291 0002306 282.9788  77.0797 15.02533941122132
STARLINK-5668           
1 55350U 23013V   25101.85402835 -.00000727  00000+0 -38777-4 0  9994
2 55350  43.0038 303.3544 0001244 269.6936  90.3763 15.02531616122229
STARLINK-5659           
1 55351U 23013W   25101.84295304 -.00001276  00000+0 -79438-4 0  9994
2 55351  43.0027 303.2691 0000454  85.6385 274.4510 15.02520688122228
STARLINK-5547           
1 55352U 23013X   25101.25017391 -.00000453  00000+0 -18435-4 0  9994
2 55352  43.0061 306.5602 0001683 262.2508  97.8143 15.02537685122134
STARLINK-5608           
1 55353U 23013Y   25100.29950651  .00000247  00000+0  33377-4 0  9994
2 55353  43.0039 311.4685 0001419 267.8840  92.1840 15.02535517121990
STARLINK-5649           
1 55354U 23013Z   25101.84625043 -.00002914  00000+0 -20064-3 0  9994
2 55354  43.0032 303.2958 0002400 278.9344  81.1227 15.02548520122221
STARLINK-5647           
1 55355U 23013AA  25100.97205185 -.00000544  00000+0 -25220-4 0  9996
2 55355  43.0031 307.9021 0001176 263.0374  97.0334 15.02537743122095
STARLINK-5651           
1 55357U 23013AC  25100.97316376  .00000255  00000+0  33935-4 0  9992
2 55357  43.0025 307.9232 0001283 268.0642  92.0053 15.02534498122093
STARLINK-5622           
1 55358U 23013AD  25101.83959399  .00000281  00000+0  35902-4 0  9992
2 55358  43.0032 303.2450 0001211 269.8736  90.1967 15.02536923122220
STARLINK-5641           
1 55359U 23013AE  25101.83403935 -.00002220  00000+0 -14931-3 0  9998
2 55359  43.0025 303.2026 0001329 264.8403  95.2288 15.02545251122224
STARLINK-5664           
1 55360U 23013AF  25101.88361603 -.00000077  00000+0  93932-5 0  9997
2 55360  43.0057 315.7038 0000482 255.9914 104.0874 15.02526711122083
STARLINK-5665           
1 55361U 23013AG  25100.24993038  .00001381  00000+0  11726-3 0  9997
2 55361  43.0030 298.9526 0001386 268.4007  91.6677 15.02541521121701
STARLINK-5574           
1 55362U 23013AH  25100.92581275  .00000370  00000+0  42452-4 0  9997
2 55362  43.0048 295.4189 0001342 268.6474  91.4214 15.02533107122235
STARLINK-5627           
1 55364U 23013AK  25101.83182753 -.00000409  00000+0 -15170-4 0  9990
2 55364  43.0033 303.1854 0001332 270.9904  89.0786 15.02532840122229
STARLINK-5639           
1 55365U 23013AL  25101.85709358  .00001335  00000+0  11389-3 0  9993
2 55365  43.0031 316.3655 0000914 278.3838  81.6901 15.02532256122077
STARLINK-5654           
1 55366U 23013AM  25101.79335969 -.00000450  00000+0 -18255-4 0  9999
2 55366  43.0032 290.7485 0001306 274.5131  85.5562 15.02524707122365
STARLINK-5635           
1 55367U 23013AN  25101.81000058  .00000651  00000+0  63293-4 0  9994
2 55367  43.0024 290.8620 0001238 268.2278  91.8422 15.02535536122362
STARLINK-5625           
1 55368U 23013AP  25101.24821152  .00000521  00000+0  53659-4 0  9999
2 55368  43.0051 293.5380 0001349 266.3954  93.6734 15.02530988122282
STARLINK-5644           
1 55369U 23013AQ  25101.85598424  .00000701  00000+0  66952-4 0  9990
2 55369  43.0041 316.3581 0001351 261.2260  98.8430 15.02535743122077
STARLINK-5027           
1 55370U 23013AR  25100.99621343  .00000736  00000+0  69517-4 0  9991
2 55370  43.0039 321.0901 0001232 265.8331  94.2370 15.02536809121944
STARLINK-5590           
1 55371U 23013AS  25101.31415545 -.00001132  00000+0 -68636-4 0  9998
2 55371  43.0052 319.1690 0002299 267.7639  92.2940 15.02560002121997
STARLINK-5568           
1 55372U 23013AT  25101.85265263  .00001171  00000+0  10175-3 0  9993
2 55372  43.0059 316.3295 0001255 281.3676  78.7025 15.02541198122077
STARLINK-5581           
1 55373U 23013AU  25101.00952892 -.00000651  00000+0 -33120-4 0  9992
2 55373  43.0045 321.1794 0001341 260.1436  99.9255 15.02534672121940
STARLINK-5578           
1 55374U 23013AV  25100.98510553 -.00007534  00000+0 -54313-3 0  9996
2 55374  43.0050 321.0024 0001317 267.4348  92.6344 15.02544448121948
STARLINK-5588           
1 55375U 23013AW  25100.97511864 -.00002970  00000+0 -20481-3 0  9990
2 55375  43.0043 320.9276 0001132 274.0814  85.9899 15.02549482121948
STARLINK-5586           
1 55376U 23013AX  25101.81332760  .00000444  00000+0  47925-4 0  9996
2 55376  43.0020 290.8834 0000997 270.8090  89.2638 15.02537778122367
STARLINK-5567           
1 55377U 23013AY  25100.96179104  .00001546  00000+0  12944-3 0  9999
2 55377  43.0015 320.8309 0001273 261.2301  98.8398 15.02550836121942
STARLINK-5572           
1 55378U 23013AZ  25100.97844809  .00000203  00000+0  30108-4 0  9994
2 55378  43.0051 320.9526 0001129 257.0978 102.9738 15.02537813121943
STARLINK-5569           
1 55379U 23013BA  25101.89915173  .00000674  00000+0  64944-4 0  9997
2 55379  43.0041 315.8212 0001251 269.9037  90.1662 15.02538016122088
STARLINK-5571           
1 55380U 23013BB  25101.84317859  .00000283  00000+0  35986-4 0  9991
2 55380  43.0025 290.2585 0001211 268.7606  91.3098 15.02538495122375
STARLINK-5575           
1 55381U 23013BC  25100.89866076 -.00000128  00000+0  55720-5 0  9994
2 55381  43.0031 321.2133 0001232 276.0455  84.0247 15.02532399121937
STARLINK-5576           
1 55382U 23013BD  25101.03827159  .00001904  00000+0  15596-3 0  9998
2 55382  43.0024 320.5451 0001378 267.8201  92.2483 15.02538227121954
STARLINK-5531           
1 55383U 23013BE  25101.83983111  .00002506  00000+0  20043-3 0  9990
2 55383  43.0034 290.2324 0001611 270.6682  89.3976 15.02553924122375
STARLINK-5537           
1 55384U 23013BF  25101.30197355 -.00001608  00000+0 -10398-3 0  9996
2 55384  43.0042 319.0836 0001293 262.3754  97.6942 15.02529813121999
STARLINK-5556           
1 55385U 23013BG  25100.95514434 -.00000457  00000+0 -18733-4 0  9991
2 55385  43.0075 320.7764 0001249 251.6725 108.3981 15.02536244121512
STARLINK-5555           
1 55386U 23013BH  25101.29086354 -.00000877  00000+0 -49850-4 0  9995
2 55386  43.0071 318.9946 0001118 260.6477  99.4239 15.02538837121997
STARLINK-5077           
1 55391U 23014A   25101.58335648  .00997613  00000+0  37739-2 0  9999
2 55391  69.9938 168.4896 0005731 314.1240 259.9311 15.85090829121698
STARLINK-5085           
1 55392U 23014B   25101.17338343  .00000438  00000+0  44507-4 0  9993
2 55392  70.0002 162.7415 0003110 269.8488  90.2315 14.98332436121806
STARLINK-4786           
1 55393U 23014C   25101.59505142 -.00000741  00000+0 -54324-4 0  9990
2 55393  70.0018 181.6862 0002673 268.3843  91.7010 14.98314441121378
STARLINK-5274           
1 55395U 23014E   25101.58669236  .00001528  00000+0  13583-3 0  9999
2 55395  70.0000 181.6350 0002964 268.1460  91.9360 14.98338917121373
STARLINK-5283           
1 55396U 23014F   25101.39058321  .00001362  00000+0  12197-3 0  9992
2 55396  70.0009 182.1658 0002861 267.2677  92.8155 14.98319770121341
STARLINK-5224           
1 55397U 23014G   25101.55310130 -.00000324  00000+0 -19401-4 0  9995
2 55397  70.0002 162.0463 0002974 268.3332  91.7487 14.98331269121850
STARLINK-5275           
1 55398U 23014H   25101.60757540  .00008699  00000+0  73685-3 0  9996
2 55398  70.0021 181.7192 0002412 260.5490  99.5397 14.98284163121378
STARLINK-5276           
1 55399U 23014J   25101.19864756 -.00000710  00000+0 -51708-4 0  9990
2 55399  70.0021 182.6975 0003194 266.7091  93.3703 14.98328756121315
STARLINK-5632           
1 55400U 23014K   25101.41561306  .00002215  00000+0  19332-3 0  9999
2 55400  70.0014 182.2481 0003080 272.0238  88.0568 14.98345525121341
STARLINK-5076           
1 55401U 23014L   25101.46984641  .00009982  00000+0  84289-3 0  9997
2 55401  70.0005 182.0385 0003701 262.8227  97.2511 14.98341425121354
STARLINK-5071           
1 55402U 23014M   25101.49073691  .00000589  00000+0  57127-4 0  9991
2 55402  70.0014 182.1144 0002817 268.1997  91.8840 14.98333582121359
STARLINK-5597           
1 55403U 23014N   25101.47821823 -.00001096  00000+0 -84078-4 0  9999
2 55403  70.0018 182.0702 0002678 267.7447  92.3406 14.98337443121357
STARLINK-5607           
1 55404U 23014P   25101.23204943  .00000873  00000+0  80942-4 0  9998
2 55404  70.0007 182.8164 0003107 268.3504  91.7299 14.98317725121315
STARLINK-5623           
1 55405U 23014Q   25101.48656875  .00002688  00000+0  23295-3 0  9994
2 55405  70.0030 182.0991 0002972 266.2237  93.8582 14.98333728121354
STARLINK-5630           
1 55406U 23014R   25101.63678180 -.00000316  00000+0 -18727-4 0  9998
2 55406  70.0012 181.8219 0002509 260.0216 100.0660 14.98311472121372
STARLINK-5019           
1 55407U 23014S   25101.49492347  .00001216  00000+0  10968-3 0  9998
2 55407  70.0000 182.1277 0003416 270.5143  89.5625 14.98333874121351
